     2.100          NAVIGATION                              RINEX VERSION / TYPE
fic2rin                                 03/06/2013 00:26:27 PGM / RUN BY / DATE
                                                            END OF HEADER
20 13  3  5 20  0  0.0  .868383795023D-04  .170530256582D-11  .000000000000D+00
     .690000000000D+02  .793750000000D+01  .555165982034D-08 -.192619845835D+00
     .253319740295D-06  .556380348280D-02  .824779272079D-05  .515378611374D+04
     .244800000000D+06 -.745058059692D-08  .103434766841D+01  .353902578354D-07
     .928387334282D+00  .207937500000D+03  .129106750669D+01 -.855714215360D-08
    -.258582199558D-09  .100000000000D+01  .173000000000D+04  .000000000000D+00
     .240000000000D+01  .000000000000D+00 -.791624188423D-08  .690000000000D+02
     .237606000000D+06  .400000000000D+01
21 13  3  5 20  0  0.0 -.284324865788D-03 -.216004991671D-11  .000000000000D+00
     .210000000000D+02  .102812500000D+02  .548629995499D-08  .336357161803D+00
     .692903995514D-06  .199801222188D-01  .733882188797D-05  .515371584320D+04
     .244800000000D+06 -.249594449997D-06  .396853731008D-01  .279396772385D-06
     .931919266178D+00  .226562500000D+03 -.216856337348D+01 -.876750805905D-08
     .165006873199D-09  .100000000000D+01  .173000000000D+04  .000000000000D+00
     .240000000000D+01  .000000000000D+00 -.111758708954D-07  .210000000000D+02
     .237606000000D+06  .400000000000D+01
22 13  3  5 20  0  0.0  .160254072398D-03  .125055521494D-11  .000000000000D+00
     .500000000000D+01  .640625000000D+01  .549951479115D-08 -.136824615354D+01
     .422820448875D-06  .626439263579D-02  .789202749729D-05  .515365252113D+04
     .244800000000D+06  .115483999252D-06  .109066009003D+01  .173225998878D-06
     .925404156123D+00  .206781250000D+03 -.203854935262D+01 -.843213694664D-08
    -.230723896291D-09  .100000000000D+01  .173000000000D+04  .000000000000D+00
     .240000000000D+01  .000000000000D+00 -.172294676304D-07  .500000000000D+01
     .237606000000D+06  .400000000000D+01
23 13  3  5 20  0  0.0  .107859726995D-03 -.363797880709D-11  .000000000000D+00
     .620000000000D+02  .921562500000D+02  .457447625958D-08  .289167617435D+01
     .474601984024D-05  .822321802843D-02  .963546335697D-05  .515374945831D+04
     .244800000000D+06 -.108033418655D-06  .214596555210D+01 -.782310962677D-07
     .956570405728D+00  .193562500000D+03 -.291455155665D+01 -.794961684774D-08
    -.753602819154D-10  .100000000000D+01  .173000000000D+04  .000000000000D+00
     .240000000000D+01  .000000000000D+00 -.200234353542D-07  .620000000000D+02
     .237606000000D+06  .400000000000D+01
24 13  3  5 20  0  0.0 -.214669853449D-05 -.682121026330D-12  .000000000000D+00
     .520000000000D+02  .524062500000D+02  .471341061819D-08  .212474154831D+01
     .273808836937D-05  .764740398154D-03  .438280403614D-05  .515370166206D+04
     .244800000000D+06 -.745058059692D-08 -.311095797575D+01  .106170773506D-06
     .959458944791D+00  .293656250000D+03  .211199721750D+00 -.835856245339D-08
     .485734518507D-10  .100000000000D+01  .173000000000D+04  .000000000000D+00
     .240000000000D+01  .000000000000D+00  .325962901115D-08  .520000000000D+02
     .237606000000D+06  .400000000000D+01
27 13  3  5 20  0  0.0 -.183970201761D-03  .147792889038D-11  .000000000000D+00
     .100000000000D+03 -.694062500000D+02  .544308386915D-08 -.129935304460D+01
    -.366754829884D-05  .589501718059D-02  .602379441261D-05  .515364423180D+04
     .244800000000D+06  .139698386192D-06 -.204700061866D+01  .447034835815D-07
     .976691590188D+00  .271593750000D+03  .833185229486D+00 -.803104881113D-08
    -.204294223960D-09  .100000000000D+01  .173000000000D+04  .000000000000D+00
     .340000000000D+01  .630000000000D+02 -.190921127796D-07  .100000000000D+03
     .237606000000D+06  .400000000000D+01
28 13  3  5 20  0  0.0  .238288659602D-03  .341060513165D-11  .000000000000D+00
     .160000000000D+02 -.815312500000D+02  .403623955415D-08 -.147546777468D+01
    -.402517616749D-05  .186504820595D-01  .552088022232D-05  .515364237785D+04
     .244800000000D+06  .270083546638D-06 -.200122175435D+01  .448897480965D-06
     .982134473454D+00  .283031250000D+03 -.177822903742D+01 -.801390523989D-08
    -.248581783000D-09  .100000000000D+01  .173000000000D+04  .000000000000D+00
     .240000000000D+01  .000000000000D+00 -.107102096081D-07  .160000000000D+02
     .237606000000D+06  .400000000000D+01
29 13  3  5 20  0  0.0  .413862988353D-03  .363797880709D-11  .000000000000D+00
     .730000000000D+02 -.505000000000D+02  .430160775066D-08  .641927436454D+00
    -.268965959549D-05  .195562781300D-02  .983290374279D-05  .515369087601D+04
     .244800000000D+06  .223517417908D-07 -.960748248141D+00 -.670552253723D-07
     .965390066726D+00  .194312500000D+03 -.110289413014D+01 -.794640242813D-08
     .175364447490D-09  .100000000000D+01  .173000000000D+04  .000000000000D+00
     .240000000000D+01  .000000000000D+00 -.977888703346D-08  .730000000000D+02
     .237606000000D+06  .400000000000D+01
30 13  3  5 20  0  0.0 -.212080776691D-03  .795807864051D-11  .000000000000D+00
     .390000000000D+02 -.675937500000D+02  .442089843388D-08 -.226051641769D+01
    -.341236591339D-05  .108601833927D-01  .502355396748D-05  .515363019753D+04
     .244800000000D+06  .117346644402D-06 -.215671436756D+01  .968575477600D-07
     .962955374591D+00  .281656250000D+03  .161233823071D+01 -.805854995667D-08
    -.167149819604D-09  .100000000000D+01  .173000000000D+04  .000000000000D+00
     .136500000000D+02  .000000000000D+00 -.419095158577D-08  .390000000000D+02
     .237606000000D+06  .400000000000D+01
31 13  3  5 20  0  0.0  .305206514895D-03  .159161572810D-11  .000000000000D+00
     .104000000000D+03  .350937500000D+02  .425017703693D-08  .119542701362D+01
     .173225998878D-05  .806490948889D-02  .383332371712D-05  .515354831505D+04
     .244800000000D+06  .212341547012D-06 -.307967280700D+01 -.912696123123D-07
     .980916901366D+00  .310937500000D+03 -.763636917571D+00 -.811748098281D-08
    -.446447167745D-10  .100000000000D+01  .173000000000D+04  .000000000000D+00
     .340000000000D+01  .000000000000D+00 -.130385160446D-07  .104000000000D+03
     .237606000000D+06  .400000000000D+01
32 13  3  5 20  0  0.0 -.540756154805D-03 -.306954461848D-11  .000000000000D+00
     .117000000000D+03  .175000000000D+02  .493270546698D-08  .179652907758D+01
     .772997736931D-06  .115996656241D-01  .861287117004D-05  .515374056244D+04
     .244800000000D+06  .154599547386D-06  .117246678208D+01  .132247805595D-06
     .949550894686D+00  .207312500000D+03 -.389538194104D+00 -.808855120634D-08
    -.438232539859D-09  .100000000000D+01  .173000000000D+04  .000000000000D+00
     .340000000000D+01  .000000000000D+00 -.325962901115D-08  .117000000000D+03
     .237606000000D+06  .400000000000D+01
32 13  3  5 19 59 44.0 -.540758483112D-03 -.306954461848D-11  .000000000000D+00
     .210000000000D+02  .175000000000D+02  .493270546698D-08  .179419538093D+01
     .772997736931D-06  .115996670211D-01  .861287117004D-05  .515374056053D+04
     .244784000000D+06  .154599547386D-06  .117246690936D+01  .132247805595D-06
     .949550900538D+00  .207312500000D+03 -.389538169234D+00 -.808855120634D-08
    -.438232539859D-09  .100000000000D+01  .173000000000D+04  .000000000000D+00
     .240000000000D+01  .000000000000D+00 -.325962901115D-08  .210000000000D+02
     .238986000000D+06  .400000000000D+01
13 13  3  5 19 59 44.0  .139929819852D-03 -.295585778076D-11  .000000000000D+00
     .000000000000D+00  .993125000000D+02  .406624080382D-08 -.252626348602D+01
     .518746674061D-05  .504445703700D-02  .944361090660D-05  .515354874802D+04
     .244784000000D+06  .931322574615D-08  .223184539869D+01  .689178705215D-07
     .982349222514D+00  .209468750000D+03  .207333606992D+01 -.774960851659D-08
    -.203579908492D-10  .100000000000D+01  .173000000000D+04  .000000000000D+00
     .240000000000D+01  .000000000000D+00 -.111758708954D-07  .000000000000D+00
     .243456000000D+06  .400000000000D+01
31 13  3  5 19 59 44.0  .305208377540D-03  .170530256582D-11  .000000000000D+00
     .100000000000D+01  .350937500000D+02  .425017703693D-08  .119309262793D+01
     .173225998878D-05  .806490937248D-02  .383332371712D-05  .515354830360D+04
     .244784000000D+06  .212341547012D-06 -.307967269289D+01 -.912696123123D-07
     .980916910144D+00  .310937500000D+03 -.763636371903D+00 -.811748098281D-08
    -.446447167745D-10  .100000000000D+01  .173000000000D+04  .000000000000D+00
     .240000000000D+01  .000000000000D+00 -.130385160446D-07  .100000000000D+01
     .243906000000D+06  .400000000000D+01
13 13  3  5 21 59 44.0  .139908399433D-03 -.295585778076D-11  .000000000000D+00
     .700000000000D+01  .954062500000D+02  .400838125088D-08 -.147587827241D+01
     .495463609695D-05  .504379300401D-02  .937469303608D-05  .515355038261D+04
     .251984000000D+06 -.707805156708D-07  .223178930017D+01  .391155481339D-07
     .982348755843D+00  .216718750000D+03  .207320378263D+01 -.782461164077D-08
    -.128576784311D-10  .100000000000D+01  .173000000000D+04  .000000000000D+00
     .240000000000D+01  .000000000000D+00 -.111758708954D-07  .700000000000D+01
     .244806000000D+06  .400000000000D+01
31 13  3  5 21 59 44.0  .305220484734D-03  .170530256582D-11  .000000000000D+00
     .200000000000D+01  .523125000000D+02  .423124767702D-08  .224301066011D+01
     .298954546452D-05  .806423835456D-02  .447966158390D-05  .515355355453D+04
     .251984000000D+06  .193715095520D-06 -.307973059226D+01  .633299350739D-07
     .980916580987D+00  .300562500000D+03 -.763300295733D+00 -.805712132573D-08
    -.578595529398D-10  .100000000000D+01  .173000000000D+04  .000000000000D+00
     .240000000000D+01  .000000000000D+00 -.130385160446D-07  .200000000000D+01
     .244806000000D+06  .400000000000D+01
